{"type":"FeatureCollection","features":[{"type":"Feature","geometry":{"type":"Polygon","coordinates":[[[31.60833338531033,-26.10000136657343],[31.608685629223856,-26.102422693309606],[31.612145849615327,-26.105909667695574],[31.61285492670288,-26.114925930930912],[31.620479946109306,-26.12257331045721],[31.621184444547875,-26.139923729098204],[31.628814039987553,-26.14757551819484],[31.629518573717167,-26.152422558679476],[31.632978768303847,-26.15590959939575],[31.63333554889503,-26.166664950841557],[31.632978768303847,-26.17742471578103],[31.629518573717167,-26.180907311881356],[31.628814039987553,-26.185758774238074],[31.62535371831549,-26.189241383124408],[31.624644719296523,-26.194092834664453],[31.621184444547875,-26.19757541352782],[31.620479946109306,-26.20242248984074],[31.612516015394846,-26.210417649457185],[31.616315107144754,-26.214243558819007],[31.616667413361114,-26.224998903889023],[31.627208759117625,-26.224432571652155],[31.63528863943174,-26.217235600210557],[31.639712061802804,-26.21609849901238],[31.643752019882612,-26.21296823730081],[31.64925453154614,-26.217235616490488],[31.65637567683921,-26.216098546601405],[31.664455564197034,-26.2089015507677],[31.67304379765268,-26.207764433546618],[31.6811237108126,-26.200567491005412],[31.686916112529175,-26.199078161217848],[31.695268016419885,-26.189709591475747],[31.69673505776557,-26.183992954571053],[31.70416835923528,-26.183333032034284],[31.704788134061044,-26.171743872642402],[31.708333180460485,-26.170834177115818],[31.708685460898597,-26.168408422647417],[31.712145665989073,-26.16492589374067],[31.7128547248127,-26.16078339154043],[31.696186572354673,-26.144092979220787],[31.69548201913476,-26.139241425078744],[31.692021736765888,-26.135758897310843],[31.69131280769492,-26.130907414059624],[31.68751362353621,-26.127081507663288],[31.69131280769492,-26.123255597067416],[31.691665054394043,-26.116665049123856],[31.692516740430765,-26.113351901284318],[31.69929006855747,-26.11161286060846],[31.70056542098448,-26.10195445230128],[31.703597554474857,-26.09804384482678],[31.70473463784225,-26.089455596818283],[31.70776683297971,-26.085544998109064],[31.70889943810764,-26.064457879410362],[31.711931694955627,-26.06054274270059],[31.712497934486546,-26.050001497290825],[31.706121442986515,-26.05056776664686],[31.702210805218293,-26.053599951555565],[31.697787394143525,-26.054732532493553],[31.681377849129145,-26.07026807033887],[31.67008741332715,-26.071400677351964],[31.664584958131233,-26.067133342036986],[31.660544960738555,-26.0702680495557],[31.643622689147676,-26.071400682832564],[31.63846796451725,-26.075396061313107],[31.63664861953676,-26.082481597879646],[31.63333554889503,-26.083333235375942],[31.632412477994674,-26.08691835195979],[31.62304390595267,-26.095265840591306],[31.609234103732028,-26.09649654800378],[31.60833338531033,-26.10000136657343]]]},"id":"00070000000000002884","properties":{"SUB_AREA":122.6,"COAST":0,"PFAF_ID":125300691400,"DIST_MAIN":139.1,"HYBAS_ID":1122276160,"DIST_SINK":139.1,"NEXT_DOWN":1122276050,"ORDER":1,"ENDO":0,"MAIN_BAS":1120012750,"NEXT_SINK":1120012750,"SORT":33093,"UP_AREA":896.9}}]}